CELESTIS-02 & TAURUS R/B
1 25160U 98007D   25066.84373977  .00000103  00000+0  10270-3 0  9991
2 25160 108.0067 110.9971 0063199 211.5872 238.6055 14.22277384404209
